STARLINK-36897          
1 67951U 26037V   26082.16668981 -.01896699  00000+0 -30526-1 0  9995
2 67951  42.9995 116.5268 0001047 272.1524 309.3955 15.55605163  5367
STARLINK-36381          
1 67952U 26037W   26082.16668981 -.01893121  00000+0 -32197-1 0  9999
2 67952  42.9992 116.5924 0001019 279.4808 275.7844 15.54113751  5367
STARLINK-36824          
1 67953U 26037X   26082.16668981  .00047723  00000+0  81605-3 0  9996
2 67953  42.9990 117.2247 0001073 269.5747  29.6417 15.50520078  5366
STARLINK-36869          
1 67954U 26037Y   26082.16668981  .00047863  00000+0  81842-3 0  9995
2 67954  42.9990 117.2168 0001097 284.0447  18.0149 15.50519607  5364
STARLINK-36872          
1 67955U 26037Z   26082.16668981 -.01883844  00000+0 -27815-1 0  9994
2 67955  42.9992 116.3496 0001003 264.5200  27.8144 15.57867527  5365
STARLINK-36918          
1 67956U 26037AA  26082.16668981 -.01888814  00000+0 -31719-1 0  9995
2 67956  42.9990 116.5285 0001075 276.0107 304.4047 15.54447575  5365
STARLINK-36829          
1 67957U 26037AB  26082.16668981 -.00257068  00000+0 -45046-2 0  9995
2 67957  42.9996 116.7610 0001055 283.2069 203.0208 15.50683978  5369
STARLINK-36799          
1 67958U 26037AC  26082.16668981 -.01901645  00000+0 -25555-1 0  9996
2 67958  42.9997 116.2082 0001215 268.1306  81.4582 15.60347516  5362
STARLINK-36834          
1 67959U 26037AD  26082.16668981  .00070192  00000+0  11945-2 0  9997
2 67959  42.9996 116.7221 0001602 267.7966 233.9698 15.50510822  5362
STARLINK-36841          
1 67960U 26037AE  26082.16668981 -.01604442  00000+0 -29184-1 0  9996
2 67960  42.9998 116.6688 0001042 295.8383 227.4619 15.51725412  5360
STARLINK-36912          
1 67961U 26038A   26082.16668981 -.02417205  00000+0 -55877-1 0  9996
2 67961  97.2852  93.0011 0001951  86.0910 114.4237 15.45931846  5360
STARLINK-36881          
1 67962U 26038B   26082.16668981 -.02489535  00000+0 -57848-1 0  9992
2 67962  97.2852  93.0062 0001517  81.2800 132.0013 15.45893159  5362
